[{"OBJECT_NAME":"JINJUSAT-1B","OBJECT_ID":"2025-052A","EPOCH":"2026-03-09T15:55:38.242848","MEAN_MOTION":15.30194857,"ECCENTRICITY":0.00055504,"INCLINATION":97.4113,"RA_OF_ASC_NODE":325.4613,"ARG_OF_PERICENTER":82.193,"MEAN_ANOMALY":277.9941,"EPHEMERIS_TYPE":0,"CLASSIFICATION_TYPE":"U","NORAD_CAT_ID":63210,"ELEMENT_SET_NO":999,"REV_AT_EPOCH":5486,"BSTAR":0.00068430401,"MEAN_MOTION_DOT":0.00019955,"MEAN_MOTION_DDOT":0},{"OBJECT_NAME":"CZ-4B DEB","OBJECT_ID":"1999-057DZ","EPOCH":"2026-03-09T09:52:12.897696","MEAN_MOTION":15.33653758,"ECCENTRICITY":0.00127381,"INCLINATION":98.4932,"RA_OF_ASC_NODE":238.6814,"ARG_OF_PERICENTER":254.7139,"MEAN_ANOMALY":105.2693,"EPHEMERIS_TYPE":0,"CLASSIFICATION_TYPE":"U","NORAD_CAT_ID":26235,"ELEMENT_SET_NO":999,"REV_AT_EPOCH":38912,"BSTAR":0.0023807093,"MEAN_MOTION_DOT":0.00078286,"MEAN_MOTION_DDOT":0}]
